start=new Date('2022-02-11T00:00:00.000Z').valueOf();
sats=[{"APOAPSIS":"548.284","MEAN_MOTION":"15.06400853","CENTER_NAME":"EARTH","PERIAPSIS":"546.138","RCS_SIZE":"LARGE","MEAN_MOTION_DDOT":"0.0000000000000","ECCENTRICITY":"0.00015500","TLE_LINE2":"2 48148  53.0558  11.6995 0001550  61.1467 298.9677 15.06400853 48125","REF_FRAME":"TEME","SITE":"AFETR","MEAN_ANOMALY":"298.9677","OBJECT_TYPE":"PAYLOAD","EPOCH":"2022-02-10T15:36:21.050496","BSTAR":"0.00014273000000","LAUNCH_DATE":"2021-04-07","OBJECT_ID":"2021-027BJ","MEAN_ELEMENT_THEORY":"SGP4","CLASSIFICATION_TYPE":"U","SEMIMAJOR_AXIS":"6925.346","ELEMENT_SET_NO":"999","INCLINATION":"53.0558","TIME_SYSTEM":"UTC","FILE":"3297147","OBJECT_NAME":"STARLINK-2491","DECAY_DATE":null,"EPHEMERIS_TYPE":"0","GP_ID":"195713431","ARG_OF_PERICENTER":"61.1467","RA_OF_ASC_NODE":"11.6995","MEAN_MOTION_DOT":"0.00001845","TLE_LINE1":"1 48148U 21027BJ  22041.65024364  .00001845  00000-0  14273-3 0  9994","NORAD_CAT_ID":"48148","PERIOD":"95.592","REV_AT_EPOCH":"4812","COUNTRY_CODE":"US"},{"REV_AT_EPOCH":"4843","COUNTRY_CODE":"US","RA_OF_ASC_NODE":"351.0259","MEAN_MOTION_DOT":"0.00001329","TLE_LINE1":"1 48149U 21027BK  22041.79583609  .00001329  00000-0  10809-3 0  9990","PERIOD":"95.592","NORAD_CAT_ID":"48149","OBJECT_NAME":"STARLINK-2492","DECAY_DATE":null,"EPHEMERIS_TYPE":"0","GP_ID":"195713681","ARG_OF_PERICENTER":"76.2509","OBJECT_ID":"2021-027BK","SEMIMAJOR_AXIS":"6925.347","ELEMENT_SET_NO":"999","CLASSIFICATION_TYPE":"U","MEAN_ELEMENT_THEORY":"SGP4","INCLINATION":"53.0562","FILE":"3297147","TIME_SYSTEM":"UTC","EPOCH":"2022-02-10T19:06:00.238176","BSTAR":"0.00010809000000","LAUNCH_DATE":"2021-04-07","SITE":"AFETR","REF_FRAME":"TEME","TLE_LINE2":"2 48149  53.0562 351.0259 0001409  76.2509 283.8637 15.06400574 48435","OBJECT_TYPE":"PAYLOAD","MEAN_ANOMALY":"283.8637","PERIAPSIS":"546.236","RCS_SIZE":"MEDIUM","MEAN_MOTION_DDOT":"0.0000000000000","ECCENTRICITY":"0.00014090","APOAPSIS":"548.188","MEAN_MOTION":"15.06400574","CENTER_NAME":"EARTH"},{"OBJECT_NAME":"STARLINK-2493","DECAY_DATE":null,"EPHEMERIS_TYPE":"0","GP_ID":"195714433","ARG_OF_PERICENTER":"88.5351","OBJECT_ID":"2021-027BL","ELEMENT_SET_NO":"999","SEMIMAJOR_AXIS":"6925.360","MEAN_ELEMENT_THEORY":"SGP4","CLASSIFICATION_TYPE":"U","INCLINATION":"53.0567","FILE":"3297147","TIME_SYSTEM":"UTC","REV_AT_EPOCH":"4845","COUNTRY_CODE":"US","RA_OF_ASC_NODE":"350.7275","MEAN_MOTION_DOT":"0.00001527","TLE_LINE1":"1 48150U 21027BL  22041.86587275  .00001527  00000-0  12137-3 0  9999","PERIOD":"95.592","NORAD_CAT_ID":"48150","PERIAPSIS":"546.241","RCS_SIZE":"LARGE","MEAN_MOTION_DDOT":"0.0000000000000","ECCENTRICITY":"0.00014200","APOAPSIS":"548.208","MEAN_MOTION":"15.06396371","CENTER_NAME":"EARTH","EPOCH":"2022-02-10T20:46:51.405600","BSTAR":"0.00012137000000","LAUNCH_DATE":"2021-04-07","SITE":"AFETR","REF_FRAME":"TEME","TLE_LINE2":"2 48150  53.0567 350.7275 0001420  88.5351 271.5800 15.06396371 48457","OBJECT_TYPE":"PAYLOAD","MEAN_ANOMALY":"271.5800"},{"OBJECT_ID":"2021-027BM","CLASSIFICATION_TYPE":"U","MEAN_ELEMENT_THEORY":"SGP4","ELEMENT_SET_NO":"999","SEMIMAJOR_AXIS":"6925.355","INCLINATION":"53.0567","TIME_SYSTEM":"UTC","FILE":"3296865","OBJECT_NAME":"STARLINK-2503","DECAY_DATE":null,"EPHEMERIS_TYPE":"0","GP_ID":"195681898","ARG_OF_PERICENTER":"60.7978","RA_OF_ASC_NODE":"353.0928","TLE_LINE1":"1 48151U 21027BM  22041.33878577 -.00001791  00000-0 -10139-3 0  9995","MEAN_MOTION_DOT":"-0.00001791","NORAD_CAT_ID":"48151","PERIOD":"95.592","REV_AT_EPOCH":"4837","COUNTRY_CODE":"US","APOAPSIS":"548.482","MEAN_MOTION":"15.06398057","CENTER_NAME":"EARTH","PERIAPSIS":"545.957","RCS_SIZE":"LARGE","MEAN_MOTION_DDOT":"0.0000000000000","ECCENTRICITY":"0.00018230","TLE_LINE2":"2 48151  53.0567 353.0928 0001823  60.7978 299.3193 15.06398057 48370","SITE":"AFETR","REF_FRAME":"TEME","MEAN_ANOMALY":"299.3193","OBJECT_TYPE":"PAYLOAD","EPOCH":"2022-02-10T08:07:51.090528","BSTAR":"-0.00010139000000","LAUNCH_DATE":"2021-04-07"},{"TLE_LINE2":"2 48276  53.0547 245.4892 0001573  65.9835 327.2372 15.06392455 45149","SITE":"AFETR","REF_FRAME":"TEME","MEAN_ANOMALY":"327.2372","OBJECT_TYPE":"PAYLOAD","BSTAR":"0.00098840000000","LAUNCH_DATE":"2021-04-29","EPOCH":"2022-02-10T22:00:00.999936","MEAN_MOTION":"15.06392455","CENTER_NAME":"EARTH","APOAPSIS":"548.326","ECCENTRICITY":"0.00015730","PERIAPSIS":"546.147","RCS_SIZE":"LARGE","MEAN_MOTION_DDOT":"0.0000000000000","TLE_LINE1":"1 48276U 21036A   22041.91667824  .00014468  00000-0  98840-3 0  9996","MEAN_MOTION_DOT":"0.00014468","NORAD_CAT_ID":"48276","PERIOD":"95.593","RA_OF_ASC_NODE":"245.4892","REV_AT_EPOCH":"4514","COUNTRY_CODE":"US","INCLINATION":"53.0547","TIME_SYSTEM":"UTC","FILE":"3296885","OBJECT_ID":"2021-036A","MEAN_ELEMENT_THEORY":"SGP4","CLASSIFICATION_TYPE":"U","ELEMENT_SET_NO":"999","SEMIMAJOR_AXIS":"6925.372","GP_ID":"195686970","ARG_OF_PERICENTER":"65.9835","OBJECT_NAME":"STARLINK-2567","DECAY_DATE":null,"EPHEMERIS_TYPE":"0"},{"COUNTRY_CODE":"US","REV_AT_EPOCH":"4504","RA_OF_ASC_NODE":"210.7903","NORAD_CAT_ID":"48277","PERIOD":"95.592","TLE_LINE1":"1 48277U 21036B   22041.84559948  .00002384  00000-0  17888-3 0  9993","MEAN_MOTION_DOT":"0.00002384","EPHEMERIS_TYPE":"0","OBJECT_NAME":"STARLINK-2569","DECAY_DATE":null,"ARG_OF_PERICENTER":"79.8244","GP_ID":"195713945","CLASSIFICATION_TYPE":"U","MEAN_ELEMENT_THEORY":"SGP4","SEMIMAJOR_AXIS":"6925.348","ELEMENT_SET_NO":"999","OBJECT_ID":"2021-036B","TIME_SYSTEM":"UTC","FILE":"3297147","INCLINATION":"53.0548","EPOCH":"2022-02-10T20:17:39.795072","LAUNCH_DATE":"2021-04-29","BSTAR":"0.00017888000000","MEAN_ANOMALY":"280.2988","OBJECT_TYPE":"PAYLOAD","TLE_LINE2":"2 48277  53.0548 210.7903 0002156  79.8244 280.2988 15.06400306 45040","REF_FRAME":"TEME","SITE":"AFETR","MEAN_MOTION_DDOT":"0.0000000000000","PERIAPSIS":"545.720","RCS_SIZE":"LARGE","ECCENTRICITY":"0.00021560","APOAPSIS":"548.706","CENTER_NAME":"EARTH","MEAN_MOTION":"15.06400306"},{"ECCENTRICITY":"0.00016470","RCS_SIZE":"LARGE","PERIAPSIS":"546.161","MEAN_MOTION_DDOT":"0.0000000000000","MEAN_MOTION":"15.06371250","CENTER_NAME":"EARTH","APOAPSIS":"548.442","BSTAR":"0.00260170000000","LAUNCH_DATE":"2021-04-29","EPOCH":"2022-02-10T22:00:00.999936","SITE":"AFETR","REF_FRAME":"TEME","TLE_LINE2":"2 48278  53.0535 225.6126 0001647  52.3055 130.9502 15.06371250  3580","OBJECT_TYPE":"PAYLOAD","MEAN_ANOMALY":"130.9502","GP_ID":"195714195","ARG_OF_PERICENTER":"52.3055","OBJECT_NAME":"STARLINK-2543","DECAY_DATE":null,"EPHEMERIS_TYPE":"0","INCLINATION":"53.0535","FILE":"3297147","TIME_SYSTEM":"UTC","OBJECT_ID":"2021-036C","ELEMENT_SET_NO":"999","SEMIMAJOR_AXIS":"6925.437","MEAN_ELEMENT_THEORY":"SGP4","CLASSIFICATION_TYPE":"U","REV_AT_EPOCH":"358","COUNTRY_CODE":"US","TLE_LINE1":"1 48278U 21036C   22041.91667824  .00038654  00000-0  26017-2 0  9997","MEAN_MOTION_DOT":"0.00038654","PERIOD":"95.594","NORAD_CAT_ID":"48278","RA_OF_ASC_NODE":"225.6126"},{"ECCENTRICITY":"0.00018310","RCS_SIZE":"LARGE","PERIAPSIS":"545.941","MEAN_MOTION_DDOT":"0.0000000000000","MEAN_MOTION":"15.06401431","CENTER_NAME":"EARTH","APOAPSIS":"548.477","BSTAR":"0.00014564000000","LAUNCH_DATE":"2021-04-29","EPOCH":"2022-02-10T21:00:48.756384","TLE_LINE2":"2 48279  53.0560 225.6765 0001831  67.4805 292.6377 15.06401431 44837","REF_FRAME":"TEME","SITE":"AFETR","MEAN_ANOMALY":"292.6377","OBJECT_TYPE":"PAYLOAD","GP_ID":"195714947","ARG_OF_PERICENTER":"67.4805","OBJECT_NAME":"STARLINK-2580","DECAY_DATE":null,"EPHEMERIS_TYPE":"0","INCLINATION":"53.0560","TIME_SYSTEM":"UTC","FILE":"3297147","OBJECT_ID":"2021-036D","MEAN_ELEMENT_THEORY":"SGP4","CLASSIFICATION_TYPE":"U","SEMIMAJOR_AXIS":"6925.344","ELEMENT_SET_NO":"999","REV_AT_EPOCH":"4483","COUNTRY_CODE":"US","MEAN_MOTION_DOT":"0.00001888","TLE_LINE1":"1 48279U 21036D   22041.87556431  .00001888  00000-0  14564-3 0  9998","NORAD_CAT_ID":"48279","PERIOD":"95.592","RA_OF_ASC_NODE":"225.6765"},{"APOAPSIS":"548.364","CENTER_NAME":"EARTH","MEAN_MOTION":"15.06418589","MEAN_MOTION_DDOT":"0.0000000000000","RCS_SIZE":"LARGE","PERIAPSIS":"545.950","ECCENTRICITY":"0.00017430","OBJECT_TYPE":"PAYLOAD","MEAN_ANOMALY":"291.0482","SITE":"AFETR","REF_FRAME":"TEME","TLE_LINE2":"2 48280  53.0545 295.6953 0001743  69.0693 291.0482 15.06418589 43856","EPOCH":"2022-02-10T20:51:30.470688","LAUNCH_DATE":"2021-04-29","BSTAR":"0.00035052000000","SEMIMAJOR_AXIS":"6925.292","ELEMENT_SET_NO":"999","CLASSIFICATION_TYPE":"U","MEAN_ELEMENT_THEORY":"SGP4","OBJECT_ID":"2021-036E","FILE":"3297147","TIME_SYSTEM":"UTC","INCLINATION":"53.0545","EPHEMERIS_TYPE":"0","OBJECT_NAME":"STARLINK-2565","DECAY_DATE":null,"ARG_OF_PERICENTER":"69.0693","GP_ID":"195714697","RA_OF_ASC_NODE":"295.6953","PERIOD":"95.591","NORAD_CAT_ID":"48280","MEAN_MOTION_DOT":"0.00004946","TLE_LINE1":"1 48280U 21036E   22041.86910267  .00004946  00000-0  35052-3 0  9993","COUNTRY_CODE":"US","REV_AT_EPOCH":"4385"},{"INCLINATION":"53.0551","FILE":"3297147","TIME_SYSTEM":"UTC","OBJECT_ID":"2021-036F","ELEMENT_SET_NO":"999","SEMIMAJOR_AXIS":"6925.305","CLASSIFICATION_TYPE":"U","MEAN_ELEMENT_THEORY":"SGP4","GP_ID":"195713446","ARG_OF_PERICENTER":"68.1575","DECAY_DATE":null,"OBJECT_NAME":"STARLINK-2520","EPHEMERIS_TYPE":"0","TLE_LINE1":"1 48281U 21036F   22041.88201073  .00003792  00000-0  27325-3 0  9996","MEAN_MOTION_DOT":"0.00003792","PERIOD":"95.591","NORAD_CAT_ID":"48281","RA_OF_ASC_NODE":"275.6474","REV_AT_EPOCH":"4413","COUNTRY_CODE":"US","MEAN_MOTION":"15.06414286","CENTER_NAME":"EARTH","APOAPSIS":"548.436","ECCENTRICITY":"0.00018280","RCS_SIZE":"LARGE","PERIAPSIS":"545.904","MEAN_MOTION_DDOT":"0.0000000000000","REF_FRAME":"TEME","SITE":"AFETR","TLE_LINE2":"2 48281  53.0551 275.6474 0001828  68.1575 291.9608 15.06414286 44134","OBJECT_TYPE":"PAYLOAD","MEAN_ANOMALY":"291.9608","BSTAR":"0.00027325000000","LAUNCH_DATE":"2021-04-29","EPOCH":"2022-02-10T21:10:05.727072"}];
